NORAD_CAT_ID,OBJECT_NAME,OBJECT_TYPE,EPOCH,MEAN_MOTION,ECCENTRICITY,INCLINATION,RA_OF_ASC_NODE,ARG_OF_PERICENTER,MEAN_ANOMALY,BSTAR,MEAN_MOTION_DOT,MEAN_MOTION_DDOT,TLE_LINE0,TLE_LINE1,TLE_LINE2,SEMIMAJOR_AXIS,PERIOD,APOGEE,PERIGEE,DECAYED
54193.0,STARLINK-5263,PAYLOAD,2022-12-16 11:09:27,15.73225473,0.0003619,53.2138,259.3086,7.3558,352.7515,1.925e-05,2.082e-05,0.0,0 STARLINK-5263,1 54193U 22141AN  22350.46489656  .00002082  00000-0  19250-4 0  9995,2 54193  53.2138 259.3086 0003619   7.3558 352.7515 15.73225473  7819,6727.823,91.532,352.122,347.25300000000016,0.0
54193.0,STARLINK-5263,PAYLOAD,2022-12-16 18:46:51,15.73195981,0.0003604,53.2137,257.7351,7.4478,352.6595,-5.762e-05,-8.704e-05,0.0,0 STARLINK-5263,1 54193U 22141AN  22350.78254220 -.00008704  00000-0 -57620-4 0  9999,2 54193  53.2137 257.7351 0003604   7.4478 352.6595 15.73195981  7863,6727.906999999997,91.533,352.196,347.347,0.0
54193.0,STARLINK-5263,PAYLOAD,2022-12-17 03:55:44,15.73209685,0.0003573,53.2139,255.8502,9.4183,350.6903,2.061e-05,2.271e-05,0.0,0 STARLINK-5263,1 54193U 22141AN  22351.16370910  .00002271  00000-0  20610-4 0  9997,2 54193  53.2139 255.8502 0003573   9.4183 350.6903 15.73209685  8153,6727.868,91.533,352.136,347.329,0.0
54193.0,STARLINK-5263,PAYLOAD,2022-12-17 17:39:04,15.73186486,0.0003871,53.2142,253.021,3.3123,356.7922,-4.1678e-06,-1.209e-05,0.0,0 STARLINK-5263,1 54193U 22141AN  22351.73547262 -.00001209  00000-0 -41678-5 0  9996,2 54193  53.2142 253.0210 0003871   3.3123 356.7922 15.73186486  8242,6727.934,91.534,352.403,347.194,0.0
54193.0,STARLINK-5263,PAYLOAD,2022-12-18 02:47:57,15.73203747,0.0003409,53.2132,251.1337,13.1852,346.9256,6.9033e-05,9.079e-05,0.0,0 STARLINK-5263,1 54193U 22141AN  22352.11664020  .00009079  00000-0  69033-4 0  9996,2 54193  53.2132 251.1337 0003409  13.1852 346.9256 15.73203747  8303,6727.884,91.533,352.043,347.456,0.0
54193.0,STARLINK-5263,PAYLOAD,2022-12-18 10:25:22,15.73203209,0.000359,53.2131,249.5624,14.2333,345.8788,7.474100000000001e-05,9.883e-05,0.0,0 STARLINK-5263,1 54193U 22141AN  22352.43428290  .00009883  00000-0  74741-4 0  9993,2 54193  53.2131 249.5624 0003590  14.2333 345.8788 15.73203209  8120,6727.886,91.533,352.166,347.336,0.0
54193.0,STARLINK-5263,PAYLOAD,2022-12-19 01:40:10,15.73208712,0.0003202,53.2145,246.42,10.8052,349.3037,0.00012109,0.00016415,0.0,0 STARLINK-5263,1 54193U 22141AN  22353.06956713  .00016415  00000-0  12109-3 0  9997,2 54193  53.2145 246.4200 0003202  10.8052 349.3037 15.73208712  8457,6727.87,91.533,351.89,347.581,0.0
54193.0,STARLINK-5263,PAYLOAD,2022-12-20 02:03:50,15.73244554,0.0003486,53.214,241.3877,7.5352,352.57199999999995,0.00012532,0.00017038,0.0,0 STARLINK-5263,1 54193U 22141AN  22354.08600078  .00017038  00000-0  12532-3 0  9992,2 54193  53.2140 241.3877 0003486   7.5352 352.5720 15.73244554  8613,6727.768,91.531,351.978,347.288,0.0
54193.0,STARLINK-5263,PAYLOAD,2022-12-20 09:41:13,15.73252231,0.0003502,53.2139,239.8155,8.5883,351.5196,0.00011079,0.00014992,0.0,0 STARLINK-5263,1 54193U 22141AN  22354.40363194  .00014992  00000-0  11079-3 0  9994,2 54193  53.2139 239.8155 0003502   8.5883 351.5196 15.73252231  8438,6727.746,91.53,351.967,347.255,0.0
54193.0,STARLINK-5263,PAYLOAD,2022-12-20 21:53:03,15.73230686,0.0003191,53.2142,237.3013,359.24800000000016,0.8535,1.1719e-05,1.024e-05,0.0,0 STARLINK-5263,1 54193U 22141AN  22354.91184794  .00001024  00000-0  11719-4 0  9991,2 54193  53.2142 237.3013 0003191 359.2480   0.8535 15.73230686  8746,6727.808000000001,91.531,351.82,347.526,0.0
54193.0,STARLINK-5263,PAYLOAD,2022-12-22 08:57:10,15.73183721,0.0003413,53.2133,230.0703,14.6144,345.4975,0.00014159,0.00019285,0.0,0 STARLINK-5263,1 54193U 22141AN  22356.37303895  .00019285  00000-0  14159-3 0  9996,2 54193  53.2133 230.0703 0003413  14.6144 345.4975 15.73183721  8976,6727.941999999999,91.534,352.103,347.51,0.0
54193.0,STARLINK-5263,PAYLOAD,2022-12-22 21:09:00,15.73235793,0.0003441,53.2135,227.5587,10.5367,349.5724,0.00027731,0.00038544,0.0,0 STARLINK-5263,1 54193U 22141AN  22356.88125735  .00038544  00000-0  27731-3 0  9996,2 54193  53.2135 227.5587 0003441  10.5367 349.5724 15.73235793  8820,6727.793000000002,91.531,351.973,347.343,0.0
54193.0,STARLINK-5263,PAYLOAD,2022-12-23 01:43:27,15.73224275,0.0004283,53.2132,226.6189,8.5352,351.574,0.00040018,0.00055998,0.0,0 STARLINK-5263,1 54193U 22141AN  22357.07184330  .00055998  00000-0  40018-3 0  9999,2 54193  53.2132 226.6189 0004283   8.5352 351.5740 15.73224275  9084,6727.826,91.532,352.57199999999995,346.809,0.0
54193.0,STARLINK-5263,PAYLOAD,2022-12-24 00:35:38,15.73241173,0.000345,53.2144,221.8936,20.0241,340.0914,0.00014384,0.00019652,0.0,0 STARLINK-5263,1 54193U 22141AN  22358.02475054  .00019652  00000-0  14384-3 0  9995,2 54193  53.2144 221.8936 0003450  20.0241 340.0914 15.73241173  9234,6727.778,91.531,351.964,347.32199999999995,0.0
54193.0,STARLINK-5263,PAYLOAD,2022-12-24 08:13:01,15.7325126,0.0003743,53.2141,220.3231,19.3805,340.7357,0.00013731,0.00018738,0.0,0 STARLINK-5263,1 54193U 22141AN  22358.34238280  .00018738  00000-0  13731-3 0  9997,2 54193  53.2141 220.3231 0003743  19.3805 340.7357 15.73251260  9051,6727.749,91.53,352.13199999999995,347.096,0.0
54193.0,STARLINK-5263,PAYLOAD,2022-12-24 18:53:23,15.73218828,0.0003517,53.2114,218.1262,4.4757,355.6294,-2.3031e-05,-3.859e-05,0.0,0 STARLINK-5263,1 54193U 22141AN  22358.78707350 -.00003859  00000-0 -23031-4 0  9999,2 54193  53.2114 218.1262 0003517   4.4757 355.6294 15.73218828  9351,6727.840999999999,91.532,352.0730000000001,347.34,0.0
54193.0,STARLINK-5263,PAYLOAD,2022-12-24 20:24:51,15.73215442,0.0003462,53.2114,217.812,1.028,359.0746,-3.5825e-05,-5.653e-05,0.0,0 STARLINK-5263,1 54193U 22141AN  22358.85060083 -.00005653  00000-0 -35825-4 0  9990,2 54193  53.2114 217.8120 0003462   1.0280 359.0746 15.73215442  9138,6727.851,91.532,352.045,347.38699999999994,0.0
54193.0,STARLINK-5263,PAYLOAD,2022-12-24 23:27:49,15.73213149,0.0003255,53.2111,217.1829,2.772,357.3318,-1.8273e-05,-3.189e-05,0.0,0 STARLINK-5263,1 54193U 22141AN  22358.97765764 -.00003189  00000-0 -18273-4 0  9991,2 54193  53.2111 217.1829 0003255   2.7720 357.3318 15.73213149  9151,6727.858,91.532,351.913,347.533,0.0
54193.0,STARLINK-5263,PAYLOAD,2022-12-25 20:48:33,15.73205486,0.0003767,53.213,212.7811,11.6059,348.5048,-2.0795e-05,-3.543e-05,0.0,0 STARLINK-5263,1 54193U 22141AN  22359.86705290 -.00003543  00000-0 -20795-4 0  9994,2 54193  53.2130 212.7811 0003767  11.6059 348.5048 15.73205486  9298,6727.88,91.533,352.279,347.21,0.0
54193.0,STARLINK-5263,PAYLOAD,2022-12-25 23:51:31,15.73203782,0.0003584,53.2117,212.1525,7.3736,352.7336,-2.684400000000001e-05,-4.391e-05,0.0,0 STARLINK-5263,1 54193U 22141AN  22359.99410921 -.00004391  00000-0 -26844-4 0  9995,2 54193  53.2117 212.1525 0003584   7.3736 352.7336 15.73203782  9542,6727.884,91.533,352.161,347.338,0.0
54193.0,STARLINK-5263,PAYLOAD,2022-12-26 07:29:02,15.73012617,0.0002263,53.2126,210.5796,340.0730000000001,20.0201,-0.00038611,-0.00054037,0.0,0 STARLINK-5263,1 54193U 22141AN  22360.31183754 -.00054037  00000-0 -38611-3 0  9990,2 54193  53.2126 210.5796 0002263 340.0730  20.0201 15.73012617  9594,6728.429,91.544,351.81699999999995,348.772,0.0
54193.0,STARLINK-5263,PAYLOAD,2022-12-26 16:38:34,15.72309691,0.0002692,53.2133,208.6962,325.1876,34.8967,-0.001365,-0.00181163,0.0,0 STARLINK-5263,1 54193U 22141AN  22360.69345714 -.00181163  00000-0 -13650-2 0  9993,2 54193  53.2133 208.6962 0002692 325.1876  34.8967 15.72309691  9655,6730.435,91.585,354.112,350.48800000000006,0.0
54193.0,STARLINK-5263,PAYLOAD,2022-12-27 06:00:00,15.70303541,0.000486,53.2164,205.9407,269.6951,0.9728,-0.010221,-0.0113339,0.0,0 STARLINK-5263,1 54193U 22141AN  22361.25001157 -.01133390  00000-0 -10221-1 0  9996,2 54193  53.2164 205.9407 0004860 269.6951   0.9728 15.70303541  9732,6736.166,91.702,361.305,354.75699999999995,0.0
54193.0,STARLINK-5263,PAYLOAD,2022-12-27 14:00:01,15.69410544,0.0004346,53.2167,204.298,269.6045,86.0358,-0.0094584,-0.01021887,0.0,0 STARLINK-5263,1 54193U 22141AN  22361.58334491 -.01021887  00000-0 -94584-2 0  9994,2 54193  53.2167 204.2980 0004346 269.6045  86.0358 15.69410544  1305,6738.721,91.754,363.514,357.657,0.0
54193.0,STARLINK-5263,PAYLOAD,2022-12-27 22:00:00,15.68697873,5.95e-05,53.2171,202.6605,217.0254,222.5296,-0.011298,-0.01184846,0.0,0 STARLINK-5263,1 54193U 22141AN  22361.91667824 -.01184846  00000-0 -11298-1 0  9995,2 54193  53.2171 202.6605 0000595 217.0254 222.5296 15.68697873  1306,6740.762,91.796,363.028,362.226,0.0
54193.0,STARLINK-5263,PAYLOAD,2022-12-28 06:00:00,15.67872659,9.17e-05,53.2168,201.0217,62.4434,100.0986,-0.011514,-0.0116882,0.0,0 STARLINK-5263,1 54193U 22141AN  22362.25001157 -.01168820  00000-0 -11514-1 0  9999,2 54193  53.2168 201.0217 0000917  62.4434 100.0986 15.67872659  9898,6743.127,91.844,365.61,364.37300000000016,0.0
54193.0,STARLINK-5263,PAYLOAD,2022-12-28 14:00:01,15.67056067,0.0001231999999999,53.2168,199.3853,71.1044,173.4403,-0.011821,-0.0116135,0.0,0 STARLINK-5263,1 54193U 22141AN  22362.58334491 -.01161350  00000-0 -11821-1 0  9997,2 54193  53.2168 199.3853 0001232  71.1044 173.4403 15.67056067  1301,6745.469,91.892,368.165,366.503,0.0
54193.0,STARLINK-5263,PAYLOAD,2022-12-28 22:00:00,15.66238239,0.0001082999999999,53.217,197.754,94.4106,231.1603,-0.012175,-0.01157294,0.0,0 STARLINK-5263,1 54193U 22141AN  22362.91667824 -.01157294  00000-0 -12175-1 0  9998,2 54193  53.2170 197.7540 0001083  94.4106 231.1603 15.66238239  1306,6747.816999999999,91.94,370.413,368.951,0.0
54193.0,STARLINK-5263,PAYLOAD,2022-12-29 06:00:02,15.6541092,0.000111,53.2171,196.1204,67.1842,338.5068,-0.012357,-0.01137937,0.0,0 STARLINK-5263,1 54193U 22141AN  22363.25002315 -.01137937  00000-0 -12357-1 0  9998,2 54193  53.2171 196.1204 0001110  67.1842 338.5068 15.65410920 10059,6750.194,91.989,372.8080000000001,371.31,0.0
